start=new Date('2022-01-12T00:00:00.000Z').valueOf();
sats=[{"TIME_SYSTEM":"UTC","OBJECT_NAME":"STARLINK-2524","PERIAPSIS":"546.410","SEMIMAJOR_AXIS":"6925.368","RA_OF_ASC_NODE":"67.0413","APOAPSIS":"548.056","MEAN_MOTION":"15.06393644","GP_ID":"193663254","INCLINATION":"53.0561","ARG_OF_PERICENTER":"80.4301","MEAN_ELEMENT_THEORY":"SGP4","REF_FRAME":"TEME","ECCENTRICITY":"0.00011880","MEAN_MOTION_DOT":"-0.00001776","COUNTRY_CODE":"US","TLE_LINE2":"2 48304  53.0561  67.0413 0001188  80.4301 279.6822 15.06393644 39342","BSTAR":"-0.00010041000000","EPOCH":"2022-01-11T11:58:57.065376","LAUNCH_DATE":"2021-04-29","MEAN_ANOMALY":"279.6822","CLASSIFICATION_TYPE":"U","ELEMENT_SET_NO":"999","CENTER_NAME":"EARTH","SITE":"AFETR","OBJECT_TYPE":"PAYLOAD","OBJECT_ID":"2021-036AE","FILE":"3269657","PERIOD":"95.593","NORAD_CAT_ID":"48304","REV_AT_EPOCH":"3934","EPHEMERIS_TYPE":"0","RCS_SIZE":"LARGE","TLE_LINE1":"1 48304U 21036AE  22011.49927159 -.00001776  00000-0 -10041-3 0  9995","DECAY_DATE":null,"MEAN_MOTION_DDOT":"0.0000000000000"},{"SEMIMAJOR_AXIS":"6925.355","OBJECT_NAME":"STARLINK-2519","PERIAPSIS":"546.283","TIME_SYSTEM":"UTC","APOAPSIS":"548.156","RA_OF_ASC_NODE":"67.3474","MEAN_MOTION":"15.06397966","MEAN_ELEMENT_THEORY":"SGP4","ARG_OF_PERICENTER":"67.2869","INCLINATION":"53.0558","GP_ID":"193662502","COUNTRY_CODE":"US","MEAN_MOTION_DOT":"-0.00001192","ECCENTRICITY":"0.00013520","REF_FRAME":"TEME","LAUNCH_DATE":"2021-04-29","EPOCH":"2022-01-11T10:18:05.611104","BSTAR":"-0.00006112100000","TLE_LINE2":"2 48305  53.0558  67.3474 0001352  67.2869 292.8263 15.06397966 39330","CENTER_NAME":"EARTH","SITE":"AFETR","ELEMENT_SET_NO":"999","CLASSIFICATION_TYPE":"U","MEAN_ANOMALY":"292.8263","FILE":"3269657","OBJECT_ID":"2021-036AF","OBJECT_TYPE":"PAYLOAD","MEAN_MOTION_DDOT":"0.0000000000000","DECAY_DATE":null,"TLE_LINE1":"1 48305U 21036AF  22011.42923161 -.00001192  00000-0 -61121-4 0  9996","RCS_SIZE":"MEDIUM","EPHEMERIS_TYPE":"0","NORAD_CAT_ID":"48305","REV_AT_EPOCH":"3933","PERIOD":"95.592"},{"FILE":"3269657","OBJECT_ID":"2021-036AG","OBJECT_TYPE":"PAYLOAD","EPHEMERIS_TYPE":"0","NORAD_CAT_ID":"48306","REV_AT_EPOCH":"3933","PERIOD":"95.592","MEAN_MOTION_DDOT":"0.0000000000000","DECAY_DATE":null,"TLE_LINE1":"1 48306U 21036AG  22011.42554302  .00000234  00000-0  34629-4 0  9991","RCS_SIZE":"LARGE","BSTAR":"0.00003462900000","TLE_LINE2":"2 48306  53.0568  67.3812 0001314  77.8681 282.2455 15.06402836 39334","LAUNCH_DATE":"2021-04-29","EPOCH":"2022-01-11T10:12:46.916928","SITE":"AFETR","CENTER_NAME":"EARTH","CLASSIFICATION_TYPE":"U","ELEMENT_SET_NO":"999","MEAN_ANOMALY":"282.2455","GP_ID":"193662253","MEAN_ELEMENT_THEORY":"SGP4","ARG_OF_PERICENTER":"77.8681","INCLINATION":"53.0568","ECCENTRICITY":"0.00013140","REF_FRAME":"TEME","MEAN_MOTION_DOT":"0.00000234","COUNTRY_CODE":"US","PERIAPSIS":"546.295","OBJECT_NAME":"STARLINK-2523","TIME_SYSTEM":"UTC","SEMIMAJOR_AXIS":"6925.340","RA_OF_ASC_NODE":"67.3812","APOAPSIS":"548.115","MEAN_MOTION":"15.06402836"},{"OBJECT_TYPE":"PAYLOAD","OBJECT_ID":"2021-036AH","FILE":"3269657","TLE_LINE1":"1 48307U 21036AH  22011.42185623  .00000123  00000-0  27154-4 0  9990","RCS_SIZE":"LARGE","MEAN_MOTION_DDOT":"0.0000000000000","DECAY_DATE":null,"PERIOD":"95.592","NORAD_CAT_ID":"48307","REV_AT_EPOCH":"3933","EPHEMERIS_TYPE":"0","EPOCH":"2022-01-11T10:07:28.378272","LAUNCH_DATE":"2021-04-29","TLE_LINE2":"2 48307  53.0561  67.3834 0001183  66.3100 293.8014 15.06402807 39332","BSTAR":"0.00002715400000","MEAN_ANOMALY":"293.8014","CLASSIFICATION_TYPE":"U","ELEMENT_SET_NO":"999","CENTER_NAME":"EARTH","SITE":"AFETR","INCLINATION":"53.0561","ARG_OF_PERICENTER":"66.3100","MEAN_ELEMENT_THEORY":"SGP4","GP_ID":"193663504","COUNTRY_CODE":"US","MEAN_MOTION_DOT":"0.00000123","REF_FRAME":"TEME","ECCENTRICITY":"0.00011830","SEMIMAJOR_AXIS":"6925.340","TIME_SYSTEM":"UTC","PERIAPSIS":"546.386","OBJECT_NAME":"STARLINK-2528","APOAPSIS":"548.024","MEAN_MOTION":"15.06402807","RA_OF_ASC_NODE":"67.3834"},{"TLE_LINE2":"2 48308  53.0565  66.8146 0001194  78.5351 281.5772 15.06393690 39358","BSTAR":"-0.00009402800000","EPOCH":"2022-01-11T13:13:15.367584","LAUNCH_DATE":"2021-04-29","MEAN_ANOMALY":"281.5772","ELEMENT_SET_NO":"999","CLASSIFICATION_TYPE":"U","CENTER_NAME":"EARTH","SITE":"AFETR","OBJECT_TYPE":"PAYLOAD","OBJECT_ID":"2021-036AJ","FILE":"3269657","PERIOD":"95.593","REV_AT_EPOCH":"3935","NORAD_CAT_ID":"48308","EPHEMERIS_TYPE":"0","TLE_LINE1":"1 48308U 21036AJ  22011.55087231 -.00001681  00000-0 -94028-4 0  9997","RCS_SIZE":"LARGE","MEAN_MOTION_DDOT":"0.0000000000000","DECAY_DATE":null,"TIME_SYSTEM":"UTC","PERIAPSIS":"546.406","OBJECT_NAME":"STARLINK-2532","SEMIMAJOR_AXIS":"6925.368","MEAN_MOTION":"15.06393690","APOAPSIS":"548.060","RA_OF_ASC_NODE":"66.8146","GP_ID":"193663754","INCLINATION":"53.0565","ARG_OF_PERICENTER":"78.5351","MEAN_ELEMENT_THEORY":"SGP4","REF_FRAME":"TEME","ECCENTRICITY":"0.00011940","MEAN_MOTION_DOT":"-0.00001681","COUNTRY_CODE":"US"},{"GP_ID":"193662003","ARG_OF_PERICENTER":"82.1025","MEAN_ELEMENT_THEORY":"SGP4","INCLINATION":"53.0551","ECCENTRICITY":"0.00010410","REF_FRAME":"TEME","MEAN_MOTION_DOT":"-0.00001810","COUNTRY_CODE":"US","OBJECT_NAME":"STARLINK-2517","PERIAPSIS":"546.511","TIME_SYSTEM":"UTC","SEMIMAJOR_AXIS":"6925.367","RA_OF_ASC_NODE":"66.8334","APOAPSIS":"547.953","MEAN_MOTION":"15.06393932","FILE":"3269657","OBJECT_TYPE":"PAYLOAD","OBJECT_ID":"2021-036AK","NORAD_CAT_ID":"48309","REV_AT_EPOCH":"3935","EPHEMERIS_TYPE":"0","PERIOD":"95.593","TLE_LINE1":"1 48309U 21036AK  22011.54718575 -.00001810  00000-0 -10270-3 0  9999","RCS_SIZE":"LARGE","DECAY_DATE":null,"MEAN_MOTION_DDOT":"0.0000000000000","TLE_LINE2":"2 48309  53.0551  66.8334 0001041  82.1025 278.0082 15.06393932 39357","BSTAR":"-0.00010270000000","LAUNCH_DATE":"2021-04-29","EPOCH":"2022-01-11T13:07:56.848800","SITE":"AFETR","CENTER_NAME":"EARTH","MEAN_ANOMALY":"278.0082","CLASSIFICATION_TYPE":"U","ELEMENT_SET_NO":"999"},{"RA_OF_ASC_NODE":"66.8329","APOAPSIS":"548.298","MEAN_MOTION":"15.06399612","SEMIMAJOR_AXIS":"6925.350","TIME_SYSTEM":"UTC","OBJECT_NAME":"STARLINK-2536","PERIAPSIS":"546.132","COUNTRY_CODE":"US","MEAN_MOTION_DOT":"-0.00002250","REF_FRAME":"TEME","ECCENTRICITY":"0.00015640","INCLINATION":"53.0557","MEAN_ELEMENT_THEORY":"SGP4","ARG_OF_PERICENTER":"90.1126","GP_ID":"193662753","CLASSIFICATION_TYPE":"U","ELEMENT_SET_NO":"999","MEAN_ANOMALY":"270.0042","SITE":"AFETR","CENTER_NAME":"EARTH","EPOCH":"2022-01-11T13:02:37.950720","LAUNCH_DATE":"2021-04-29","BSTAR":"-0.00013217000000","TLE_LINE2":"2 48310  53.0557  66.8329 0001564  90.1126 270.0042 15.06399612 39359","DECAY_DATE":null,"MEAN_MOTION_DDOT":"0.0000000000000","TLE_LINE1":"1 48310U 21036AL  22011.54349480 -.00002250  00000-0 -13217-3 0  9999","RCS_SIZE":"LARGE","PERIOD":"95.592","EPHEMERIS_TYPE":"0","REV_AT_EPOCH":"3935","NORAD_CAT_ID":"48310","OBJECT_ID":"2021-036AL","OBJECT_TYPE":"PAYLOAD","FILE":"3269657"},{"INCLINATION":"53.0566","ARG_OF_PERICENTER":"84.3601","MEAN_ELEMENT_THEORY":"SGP4","GP_ID":"193663005","MEAN_MOTION_DOT":"0.00000063","COUNTRY_CODE":"US","REF_FRAME":"TEME","ECCENTRICITY":"0.00011020","SEMIMAJOR_AXIS":"6925.344","TIME_SYSTEM":"UTC","OBJECT_NAME":"STARLINK-2534","PERIAPSIS":"546.446","APOAPSIS":"547.972","MEAN_MOTION":"15.06401476","RA_OF_ASC_NODE":"66.8678","OBJECT_TYPE":"PAYLOAD","OBJECT_ID":"2021-036AM","FILE":"3269657","RCS_SIZE":"LARGE","TLE_LINE1":"1 48311U 21036AM  22011.53980736  .00000063  00000-0  23129-4 0  9996","MEAN_MOTION_DDOT":"0.0000000000000","DECAY_DATE":null,"PERIOD":"95.592","REV_AT_EPOCH":"3935","NORAD_CAT_ID":"48311","EPHEMERIS_TYPE":"0","EPOCH":"2022-01-11T12:57:19.355904","LAUNCH_DATE":"2021-04-29","TLE_LINE2":"2 48311  53.0566  66.8678 0001102  84.3601 275.7513 15.06401476 39355","BSTAR":"0.00002312900000","MEAN_ANOMALY":"275.7513","CLASSIFICATION_TYPE":"U","ELEMENT_SET_NO":"999","CENTER_NAME":"EARTH","SITE":"AFETR"},{"TIME_SYSTEM":"UTC","PERIAPSIS":"546.411","OBJECT_NAME":"STARLINK-2061","SEMIMAJOR_AXIS":"6925.364","RA_OF_ASC_NODE":"67.1778","APOAPSIS":"548.048","MEAN_MOTION":"15.06394926","GP_ID":"193663255","INCLINATION":"53.0553","MEAN_ELEMENT_THEORY":"SGP4","ARG_OF_PERICENTER":"70.1382","REF_FRAME":"TEME","ECCENTRICITY":"0.00011820","COUNTRY_CODE":"US","MEAN_MOTION_DOT":"-0.00000952","BSTAR":"-0.00004505800000","TLE_LINE2":"2 48312  53.0553  67.1778 0001182  70.1382 289.9734 15.06394926 39346","EPOCH":"2022-01-11T11:16:28.985952","LAUNCH_DATE":"2021-04-29","ELEMENT_SET_NO":"999","CLASSIFICATION_TYPE":"U","MEAN_ANOMALY":"289.9734","CENTER_NAME":"EARTH","SITE":"AFETR","OBJECT_ID":"2021-036AN","OBJECT_TYPE":"PAYLOAD","FILE":"3269657","PERIOD":"95.592","EPHEMERIS_TYPE":"0","NORAD_CAT_ID":"48312","REV_AT_EPOCH":"3934","DECAY_DATE":null,"MEAN_MOTION_DDOT":"0.0000000000000","TLE_LINE1":"1 48312U 21036AN  22011.46977993 -.00000952  00000-0 -45058-4 0  9994","RCS_SIZE":"LARGE"},{"TIME_SYSTEM":"UTC","OBJECT_NAME":"STARLINK-2541","PERIAPSIS":"546.335","SEMIMAJOR_AXIS":"6925.383","APOAPSIS":"548.162","RA_OF_ASC_NODE":"67.1925","MEAN_MOTION":"15.06388734","GP_ID":"193662503","INCLINATION":"53.0540","MEAN_ELEMENT_THEORY":"SGP4","ARG_OF_PERICENTER":"70.1849","REF_FRAME":"TEME","ECCENTRICITY":"0.00013190","COUNTRY_CODE":"US","MEAN_MOTION_DOT":"-0.00001403","BSTAR":"-0.00007534600000","TLE_LINE2":"2 48313  53.0540  67.1925 0001319  70.1849 289.9282 15.06388734 39334","EPOCH":"2022-01-11T11:11:10.819680","LAUNCH_DATE":"2021-04-29","CLASSIFICATION_TYPE":"U","ELEMENT_SET_NO":"999","MEAN_ANOMALY":"289.9282","CENTER_NAME":"EARTH","SITE":"AFETR","OBJECT_ID":"2021-036AP","OBJECT_TYPE":"PAYLOAD","FILE":"3269657","PERIOD":"95.593","EPHEMERIS_TYPE":"0","NORAD_CAT_ID":"48313","REV_AT_EPOCH":"3933","MEAN_MOTION_DDOT":"0.0000000000000","DECAY_DATE":null,"RCS_SIZE":"LARGE","TLE_LINE1":"1 48313U 21036AP  22011.46609745 -.00001403  00000-0 -75346-4 0  9997"}];
